satname,norad_id,inclination_deg,eccentricity,mean_motion_rev_per_day,perigee_km,apogee_km,l1,l2
STARLINK-1008,44714,53.0521,0.0001298,15.06411691,546.276821346868,548.0746325307819,1 44714U 19074B   25259.41163063  .00002659  00000+0  19728-3 0  9999,2 44714  53.0521 248.9852 0001298  90.1253 269.9885 15.06411691322486
STARLINK-1010,44716,53.0509,0.0010415,15.76975164,332.0205747321179,346.01240545197925,1 44716U 19074D   25259.06700154  .00121711  00000+0  72671-3 0  9997,2 44716  53.0509 202.0198 0010415  38.8243 321.3523 15.76975164323094
STARLINK-1011,44717,53.0511,0.0006588,15.66895677,363.3480991333672,372.2365356019309,1 44717U 19074E   25259.66670139  .00129033  00000+0  11807-2 0  9991,2 44717  53.0511 252.5395 0006588  32.4165  82.9167 15.66895677  5951
STARLINK-1012,44718,53.0532,0.0001306,15.06406684,546.2866246704252,548.0955203629665,1 44718U 19074F   25259.38949723  .00001410  00000+0  11350-3 0  9991,2 44718  53.0532 249.0848 0001306  83.9302 276.1835 15.06406684322474
STARLINK-1015,44721,53.0441,0.0001479,15.968195,282.26413422321,284.23457230650547,1 44721U 19074J   25259.66670139  .00342095  58397-4  78554-3 0  9991,2 44721  53.0441 187.2237 0001479  35.2400 253.3273 15.96819500  6030
STARLINK-1017,44723,53.0525,0.0003551,15.1076546,531.4098279767322,536.3187312855262,1 44723U 19074L   25259.35579981  .00031292  00000+0  18736-2 0  9994,2 44723  53.0525 247.8434 0003551 351.4220   8.6710 15.10765460322492
STARLINK-1019,44724,53.0539,0.0001327,15.06410807,546.2594468793968,548.0974255961746,1 44724U 19074M   25259.38582907  .00002185  00000+0  16549-3 0  9990,2 44724  53.0539 249.1014 0001327  82.3080 277.8060 15.06410807322473
STARLINK-1020,44725,53.053,0.0001464,15.06400079,546.1974448212313,548.2251868081021,1 44725U 19074N   25259.45768820 -.00000053  00000+0  15333-4 0  9993,2 44725  53.0530 268.7783 0001464 100.2888 259.8266 15.06400079322202
STARLINK-1021,44726,53.0436,0.0002784,15.90995467,297.6369430964105,301.35504914865214,1 44726U 19074P   25259.66670139  .00372523  63249-4  11646-2 0  9995,2 44726  53.0436 192.9865 0002784  22.9229  24.5597 15.90995467  6028
STARLINK-1029,44734,53.0512,0.0007117,15.85190005,311.02571456503574,320.5538499468994,1 44734U 19074X   25259.66670139  .00238037  00000+0  95910-3 0  9993,2 44734  53.0512 116.6640 0007117 104.7895 256.3111 15.85190005  6003
STARLINK-1030,44735,53.0343,0.0003293,16.20876157,215.0022554902971,219.34592737511412,1 44735U 19074Y   25259.99240193  .02255498  11834-4  10608-2 0  9997,2 44735  53.0343 206.9379 0003293 231.6936 128.3806 16.20876157323117
STARLINK-1031,44736,53.0521,0.0007551,15.36970153,449.91509269391463,460.2346092312373,1 44736U 19074Z   25258.71393901  .00105728  00000+0  28499-2 0  9996,2 44736  53.0521 252.9565 0007551   1.6660 358.4366 15.36970153322375
STARLINK-1036,44741,53.0541,9.18e-05,15.06390569,546.6047130946863,547.8762123968472,1 44741U 19074AE  25259.28815499  .00001000  00000+0  86028-4 0  9998,2 44741  53.0541 269.5411 0000918  98.8343 261.2750 15.06390569322184
STARLINK-1039,44744,53.0513,0.0005011,15.09210327,535.1456961812564,542.0776617072943,1 44744U 19074AH  25259.49183010  .00023622  00000+0  14819-2 0  9992,2 44744  53.0513 288.0334 0005011 334.7606  25.3139 15.09210327321948
STARLINK-1042,44747,53.0456,0.000323,15.40720551,441.7779377617535,446.18502630114654,1 44747U 19074AL  25259.28305143  .00019046  00000+0  46770-3 0  9992,2 44747  53.0456 205.7995 0003230  24.2933 335.8223 15.40720551323104
STARLINK-1043,44748,53.0526,9.35e-05,15.0640683,546.5431069181268,547.8381431840116,1 44748U 19074AM  25259.45953399  .00002416  00000+0  18098-3 0  9999,2 44748  53.0526 288.7703 0000935  80.3796 279.7299 15.06406830321931
STARLINK-1046,44751,53.0537,0.0001396,15.06406207,546.2257584395611,548.1593104455769,1 44751U 19074AQ  25259.47428013  .00002527  00000+0  18843-3 0  9996,2 44751  53.0537 288.7063 0001396  88.6035 271.5114 15.06406207321939
STARLINK-1047,44752,53.0716,0.000484,15.27899769,478.7714088954772,485.4121103347843,1 44752U 19074AR  25259.31789112  .00009953  00000+0  37281-3 0  9997,2 44752  53.0716 237.7879 0004840  43.7393 316.3989 15.27899769322643
STARLINK-1048,44753,53.0563,0.0001297,15.06415741,546.2651030097086,548.0615259112792,1 44753U 19074AS  25259.36738360 -.00001406  00000+0 -75494-4 0  9998,2 44753  53.0563 249.1848 0001297  80.6524 279.4612 15.06415741322470
STARLINK-1053,44758,53.0418,0.0003474,15.54810828,400.3469211091833,405.05824845269035,1 44758U 19074AX  25259.30263925  .00052186  00000+0  77180-3 0  9999,2 44758  53.0418 224.2591 0003474  64.5653 295.5717 15.54810828322839
STARLINK-1054,44759,53.0459,0.0011123,15.64055554,368.44376104709227,383.4689170891834,1 44759U 19074AY  25259.66670139  .00154562  00000+0  15750-2 0  9993,2 44759  53.0459 252.5042 0011123   0.8512 136.9408 15.64055554  5805
STARLINK-1056,44761,53.0436,0.0010818,15.75781332,335.13844281641104,349.6790155560784,1 44761U 19074BA  25259.66670139  .00136543  00000+0  85710-3 0  9999,2 44761  53.0436 242.3136 0010818  24.9968 165.3025 15.75781332  5832
STARLINK-1057,44762,53.0415,0.0003062,15.93234901,291.1944146973283,295.2799642509626,1 44762U 19074BB  25259.66670139  .00391482  70567-4  10888-2 0  9998,2 44762  53.0415 213.7347 0003062  37.7972  55.0584 15.93234901  6028
STARLINK-1060,44765,53.0532,0.0001483,15.27164377,483.2762045611753,485.3116015670248,1 44765U 19074BE  25259.66670139  .01748341  00000+0  59229-1 0  9993,2 44765  53.0532 266.6967 0001483  59.6890 263.7869 15.27164377  5808
STARLINK-1063,44768,53.0539,0.0001372,15.06438085,546.1446935498725,548.044977165494,1 44768U 19074BH  25259.59589235  .00008515  00000+0  58927-3 0  9991,2 44768  53.0539 288.1573 0001372  92.3271 267.7875 15.06438085321960
STARLINK-1067,44771,53.0503,0.0001329,15.06401615,546.2862300347733,548.1269863658335,1 44771U 19074BL  25259.38581507  .00000427  00000+0  47579-4 0  9992,2 44771  53.0503 289.1011 0001329  70.0728 290.0405 15.06401615321928
STARLINK-1068,44772,53.0527,0.0001494,15.06404862,546.1620118003102,548.2313014969168,1 44772U 19074BM  25259.44295408  .00002905  00000+0  21384-3 0  9990,2 44772  53.0527 268.8449 0001494  82.4890 277.6269 15.06404862322202
STARLINK-1112,44925,53.0536,0.0004521,15.45300703,427.41647679945345,433.57284154567606,1 44925U 20001M   25259.57686767  .00023278  00000+0  48822-3 0  9990,2 44925  53.0536  19.8248 0004521 140.1357 219.9982 15.45300703314009
STARLINK-1114,44927,53.0557,0.0001377,15.06401277,546.2540241624692,548.1612640774592,1 44927U 20001P   25259.41530712  .00000691  00000+0  65296-4 0  9992,2 44927  53.0557  48.9679 0001377  86.6617 273.4529 15.06401277313583
STARLINK-1123,44930,53.0563,0.0001323,15.0639558,546.3088792283615,548.1413300412478,1 44930U 20001S   25259.56274306  .00001097  00000+0  92537-4 0  9995,2 44930  53.0563  48.3050 0001323  89.2971 270.8170 15.06395580313609
STARLINK-1144,44933,53.049,0.001085,15.49287134,411.4355466578754,426.18492215653987,1 44933U 20001V   25259.66670139  .00135029  00000+0  23911-2 0  9994,2 44933  53.0490 358.0310 0010850 281.2168 154.1533 15.49287134  5863
STARLINK-1071,44934,53.0342,0.0007221,16.2490163,201.52232561294113,211.0315362119636,1 44934U 20001W   25258.06999302  .02466582  11969-4  82932-3 0  9997,2 44934  53.0342 330.4113 0007221 351.2862   8.8052 16.24901630314550
STARLINK-1091,44940,53.0441,0.000482,15.74074195,344.0253135333005,350.5086029490458,1 44940U 20001AC  25259.66670139  .00149241  00000+0  10097-2 0  9994,2 44940  53.0441 344.4620 0004820 284.0991 323.6814 15.74074195  5971
STARLINK-1094,44941,53.0564,0.0001309,15.06397169,546.3137052971224,548.1267638211311,1 44941U 20001AD  25259.64199325  .00001626  00000+0  12806-3 0  9991,2 44941  53.0564  27.9487 0001309 124.8911 235.2202 15.06397169313890
STARLINK-1096,44942,52.9929,0.0002865,15.74776032,343.34232820387024,347.1948396034477,1 44942U 20001AE  25259.13670252  .00097378  00000+0  64475-3 0  9997,2 44942  52.9929 173.7984 0002865 118.0305 242.1003 15.74776032316834
STARLINK-1122,44949,53.0575,0.000126,15.06390894,546.366869222562,548.1120640921599,1 44949U 20001AM  25259.59776619 -.00001492  00000+0 -81286-4 0  9992,2 44949  53.0575  28.1465 0001260 105.6942 254.4186 15.06390894313887
STARLINK-1066,44954,53.0389,0.0001527,16.1164437,241.32524159963214,243.34713411120265,1 44954U 20001AS  25259.95287016  .00861124  44036-3  80298-3 0  9992,2 44954  53.0389 307.2570 0001527 352.8437   7.2575 16.11644370314992
STARLINK-1080,44961,53.0577,0.0001207,15.0639838,546.3806328391775,548.0524131796319,1 44961U 20001AZ  25259.59591624 -.00001005  00000+0 -48622-4 0  9994,2 44961  53.0577   8.1587 0001207  92.7638 267.3489 15.06398380314175
STARLINK-1090,44968,53.0558,0.0001154,15.06399436,546.4141010945214,548.0124719406504,1 44968U 20001BG  25259.59960885 -.00001980  00000+0 -11408-3 0  9993,2 44968  53.0558   8.1426 0001154  87.8387 272.2734 15.06399436314171
STARLINK-1107,44972,53.0134,0.0007845,15.54503257,398.2767141584518,408.9172547800845,1 44972U 20001BL  25259.40787349  .00079020  00000+0  11731-2 0  9996,2 44972  53.0134 301.1564 0007845  32.1729 327.9758 15.54503257315098
STARLINK-1132,45044,53.0549,0.0001271,15.06430951,546.2364994600348,547.9968989503732,1 45044U 20006A   25259.49269359  .00006582  00000+0  45995-3 0  9990,2 45044  53.0549 328.6202 0001271  76.6169 283.4961 15.06430951310487
STARLINK-1131,45047,53.057,0.000123,15.06420805,546.2959843139115,547.9996043733208,1 45047U 20006D   25259.53514643  .00001297  00000+0  10592-3 0  9990,2 45047  53.0570 348.9696 0001230  92.1743 267.9387 15.06420805310208
STARLINK-1134,45048,53.047,0.0007006,15.23034523,491.87722281322476,501.5102356310117,1 45048U 20006E   25259.46645548  .00035544  00000+0  14967-2 0  9993,2 45048  53.0470 333.0876 0007006 355.1363   4.9564 15.23034523310427
